start=new Date('2022-05-09T00:00:00.000Z').valueOf();
sats=[{"NORAD_CAT_ID":"51973","CLASSIFICATION_TYPE":"U","MEAN_ELEMENT_THEORY":"SGP4","SITE":"AFETR","COUNTRY_CODE":"US","REF_FRAME":"TEME","SEMIMAJOR_AXIS":"6792.297","OBJECT_ID":"2022-025T","APOAPSIS":"415.486","EPOCH":"2022-05-08T14:00:01.000224","FILE":"3435746","TLE_LINE2":"2 51973  53.2175 203.9870 0001948  36.0699 155.0223 15.50878309  3696","REV_AT_EPOCH":"369","OBJECT_NAME":"STARLINK-3679","ECCENTRICITY":"0.00019480","PERIAPSIS":"412.839","ELEMENT_SET_NO":"999","ARG_OF_PERICENTER":"36.0699","EPHEMERIS_TYPE":"0","MEAN_ANOMALY":"155.0223","LAUNCH_DATE":"2022-03-09","MEAN_MOTION_DDOT":"0.0000000000000","MEAN_MOTION":"15.50878309","BSTAR":"-0.01320300000000","OBJECT_TYPE":"PAYLOAD","DECAY_DATE":null,"TLE_LINE1":"1 51973U 22025T   22128.58334491 -.00719237  00000-0 -13203-1 0  9999","TIME_SYSTEM":"UTC","GP_ID":"203019014","INCLINATION":"53.2175","RCS_SIZE":"LARGE","MEAN_MOTION_DOT":"-0.00719237","PERIOD":"92.851","RA_OF_ASC_NODE":"203.9870","CENTER_NAME":"EARTH"},{"TIME_SYSTEM":"UTC","TLE_LINE1":"1 51974U 22025U   22128.58334491 -.00001920  00000-0 -25875-4 0  9994","DECAY_DATE":null,"BSTAR":"-0.00002587500000","OBJECT_TYPE":"PAYLOAD","CENTER_NAME":"EARTH","RA_OF_ASC_NODE":"203.1871","PERIOD":"92.910","MEAN_MOTION_DOT":"-0.00001920","RCS_SIZE":"LARGE","INCLINATION":"53.2174","GP_ID":"203019111","EPHEMERIS_TYPE":"0","ARG_OF_PERICENTER":"47.6838","MEAN_MOTION":"15.49886440","MEAN_ANOMALY":"80.6195","LAUNCH_DATE":"2022-03-09","MEAN_MOTION_DDOT":"0.0000000000000","FILE":"3435746","APOAPSIS":"418.079","EPOCH":"2022-05-08T14:00:01.000224","OBJECT_ID":"2022-025U","SEMIMAJOR_AXIS":"6795.195","REF_FRAME":"TEME","ELEMENT_SET_NO":"999","PERIAPSIS":"416.041","ECCENTRICITY":"0.00014990","OBJECT_NAME":"STARLINK-3672","REV_AT_EPOCH":"369","TLE_LINE2":"2 51974  53.2174 203.1871 0001499  47.6838  80.6195 15.49886440  3697","MEAN_ELEMENT_THEORY":"SGP4","CLASSIFICATION_TYPE":"U","NORAD_CAT_ID":"51974","COUNTRY_CODE":"US","SITE":"AFETR"},{"REV_AT_EPOCH":"369","TLE_LINE2":"2 51975  53.2175 204.0183 0001886  37.7061 156.8002 15.50882984  3697","OBJECT_NAME":"STARLINK-3674","ECCENTRICITY":"0.00018860","ELEMENT_SET_NO":"999","PERIAPSIS":"412.868","REF_FRAME":"TEME","SEMIMAJOR_AXIS":"6792.284","OBJECT_ID":"2022-025V","EPOCH":"2022-05-08T14:00:01.000224","APOAPSIS":"415.430","FILE":"3435746","SITE":"AFETR","COUNTRY_CODE":"US","NORAD_CAT_ID":"51975","CLASSIFICATION_TYPE":"U","MEAN_ELEMENT_THEORY":"SGP4","INCLINATION":"53.2175","GP_ID":"203019267","RCS_SIZE":"LARGE","MEAN_MOTION_DOT":"-0.00719288","PERIOD":"92.850","RA_OF_ASC_NODE":"204.0183","CENTER_NAME":"EARTH","OBJECT_TYPE":"PAYLOAD","BSTAR":"-0.01320200000000","DECAY_DATE":null,"TLE_LINE1":"1 51975U 22025V   22128.58334491 -.00719288  00000-0 -13202-1 0  9996","TIME_SYSTEM":"UTC","MEAN_ANOMALY":"156.8002","LAUNCH_DATE":"2022-03-09","MEAN_MOTION_DDOT":"0.0000000000000","MEAN_MOTION":"15.50882984","ARG_OF_PERICENTER":"37.7061","EPHEMERIS_TYPE":"0"},{"EPHEMERIS_TYPE":"0","ARG_OF_PERICENTER":"41.9192","MEAN_MOTION":"15.24335413","MEAN_MOTION_DDOT":"0.0000000000000","LAUNCH_DATE":"2022-03-09","MEAN_ANOMALY":"66.8172","DECAY_DATE":null,"TIME_SYSTEM":"UTC","TLE_LINE1":"1 51976U 22025W   22128.58334491 -.00697126  00000-0 -30084-1 0  9990","BSTAR":"-0.03008400000000","OBJECT_TYPE":"PAYLOAD","MEAN_MOTION_DOT":"-0.00697126","PERIOD":"94.467","RA_OF_ASC_NODE":"209.3748","CENTER_NAME":"EARTH","RCS_SIZE":"LARGE","GP_ID":"203019190","INCLINATION":"53.2175","MEAN_ELEMENT_THEORY":"SGP4","NORAD_CAT_ID":"51976","CLASSIFICATION_TYPE":"U","COUNTRY_CODE":"US","SITE":"AFETR","EPOCH":"2022-05-08T14:00:01.000224","APOAPSIS":"493.992","FILE":"3435746","REF_FRAME":"TEME","OBJECT_ID":"2022-025W","SEMIMAJOR_AXIS":"6870.919","ECCENTRICITY":"0.00017580","OBJECT_NAME":"STARLINK-3663","ELEMENT_SET_NO":"999","PERIAPSIS":"491.576","TLE_LINE2":"2 51976  53.2175 209.3748 0001758  41.9192  66.8172 15.24335413  3658","REV_AT_EPOCH":"365"},{"ARG_OF_PERICENTER":"20.7871","EPHEMERIS_TYPE":"0","LAUNCH_DATE":"2022-03-09","MEAN_ANOMALY":"26.1769","MEAN_MOTION_DDOT":"0.0000000000000","MEAN_MOTION":"15.73152502","BSTAR":"0.00043474000000","OBJECT_TYPE":"PAYLOAD","TIME_SYSTEM":"UTC","TLE_LINE1":"1 51977U 22025X   22128.58334491  .00060717  00000-0  43474-3 0  9998","DECAY_DATE":null,"RCS_SIZE":"LARGE","INCLINATION":"53.2134","GP_ID":"203019352","CENTER_NAME":"EARTH","RA_OF_ASC_NODE":"202.0255","PERIOD":"91.536","MEAN_MOTION_DOT":"0.00060717","CLASSIFICATION_TYPE":"U","NORAD_CAT_ID":"51977","MEAN_ELEMENT_THEORY":"SGP4","COUNTRY_CODE":"US","SITE":"AFETR","OBJECT_ID":"2022-025X","SEMIMAJOR_AXIS":"6728.031","REF_FRAME":"TEME","FILE":"3435746","EPOCH":"2022-05-08T14:00:01.000224","APOAPSIS":"351.739","REV_AT_EPOCH":"369","TLE_LINE2":"2 51977  53.2134 202.0255 0002740  20.7871  26.1769 15.73152502  3693","PERIAPSIS":"348.052","ELEMENT_SET_NO":"999","ECCENTRICITY":"0.00027400","OBJECT_NAME":"STARLINK-3660"},{"MEAN_MOTION":"15.21124833","LAUNCH_DATE":"2022-03-09","MEAN_MOTION_DDOT":"0.0000000000000","MEAN_ANOMALY":"219.9885","EPHEMERIS_TYPE":"0","ARG_OF_PERICENTER":"58.3043","CENTER_NAME":"EARTH","MEAN_MOTION_DOT":"-0.00693732","PERIOD":"94.667","RA_OF_ASC_NODE":"209.3687","RCS_SIZE":"LARGE","GP_ID":"203018773","INCLINATION":"53.2175","TIME_SYSTEM":"UTC","TLE_LINE1":"1 51978U 22025Y   22128.58334491 -.00693732  00000-0 -32927-1 0  9999","DECAY_DATE":null,"OBJECT_TYPE":"PAYLOAD","BSTAR":"-0.03292700000000","COUNTRY_CODE":"US","SITE":"AFETR","MEAN_ELEMENT_THEORY":"SGP4","CLASSIFICATION_TYPE":"U","NORAD_CAT_ID":"51978","ELEMENT_SET_NO":"999","PERIAPSIS":"501.392","ECCENTRICITY":"0.00015360","OBJECT_NAME":"STARLINK-3666","REV_AT_EPOCH":"364","TLE_LINE2":"2 51978  53.2175 209.3687 0001536  58.3043 219.9885 15.21124833  3643","FILE":"3435746","EPOCH":"2022-05-08T14:00:01.000224","APOAPSIS":"503.505","OBJECT_ID":"2022-025Y","SEMIMAJOR_AXIS":"6880.584","REF_FRAME":"TEME"},{"REV_AT_EPOCH":"1068","TLE_LINE2":"2 51979  53.2174 208.2293 0001611  40.8400 344.7693 15.23850920 10682","ECCENTRICITY":"0.00016110","OBJECT_NAME":"STARLINK-3656","PERIAPSIS":"493.133","ELEMENT_SET_NO":"999","REF_FRAME":"TEME","OBJECT_ID":"2022-025Z","SEMIMAJOR_AXIS":"6872.375","EPOCH":"2022-05-08T20:00:01.000224","APOAPSIS":"495.347","FILE":"3436109","COUNTRY_CODE":"US","SITE":"AFETR","NORAD_CAT_ID":"51979","CLASSIFICATION_TYPE":"U","MEAN_ELEMENT_THEORY":"SGP4","RCS_SIZE":"LARGE","GP_ID":"203028172","INCLINATION":"53.2174","RA_OF_ASC_NODE":"208.2293","PERIOD":"94.497","MEAN_MOTION_DOT":"-0.00697150","CENTER_NAME":"EARTH","BSTAR":"-0.03052600000000","OBJECT_TYPE":"PAYLOAD","DECAY_DATE":null,"TIME_SYSTEM":"UTC","TLE_LINE1":"1 51979U 22025Z   22128.83334491 -.00697150  00000-0 -30526-1 0  9999","MEAN_MOTION_DDOT":"0.0000000000000","LAUNCH_DATE":"2022-03-09","MEAN_ANOMALY":"344.7693","MEAN_MOTION":"15.23850920","ARG_OF_PERICENTER":"40.8400","EPHEMERIS_TYPE":"0"},{"MEAN_MOTION":"15.21370085","LAUNCH_DATE":"2022-03-09","MEAN_MOTION_DDOT":"0.0000000000000","MEAN_ANOMALY":"242.4986","EPHEMERIS_TYPE":"0","ARG_OF_PERICENTER":"68.3289","CENTER_NAME":"EARTH","PERIOD":"94.652","MEAN_MOTION_DOT":"-0.00694673","RA_OF_ASC_NODE":"209.3702","GP_ID":"203018852","INCLINATION":"53.2176","RCS_SIZE":"LARGE","TLE_LINE1":"1 51980U 22025AA  22128.58334491 -.00694673  00000-0 -32738-1 0  9997","TIME_SYSTEM":"UTC","DECAY_DATE":null,"BSTAR":"-0.03273800000000","OBJECT_TYPE":"PAYLOAD","SITE":"AFETR","COUNTRY_CODE":"US","MEAN_ELEMENT_THEORY":"SGP4","NORAD_CAT_ID":"51980","CLASSIFICATION_TYPE":"U","PERIAPSIS":"500.762","ELEMENT_SET_NO":"999","OBJECT_NAME":"STARLINK-3649","ECCENTRICITY":"0.00013770","REV_AT_EPOCH":"364","TLE_LINE2":"2 51980  53.2176 209.3702 0001377  68.3289 242.4986 15.21370085  3646","FILE":"3435746","EPOCH":"2022-05-08T14:00:01.000224","APOAPSIS":"502.656","SEMIMAJOR_AXIS":"6879.844","OBJECT_ID":"2022-025AA","REF_FRAME":"TEME"},{"RCS_SIZE":"LARGE","INCLINATION":"53.2175","GP_ID":"203019015","MEAN_MOTION_DOT":"-0.00693065","PERIOD":"94.682","RA_OF_ASC_NODE":"209.3672","CENTER_NAME":"EARTH","BSTAR":"-0.03312700000000","OBJECT_TYPE":"PAYLOAD","DECAY_DATE":null,"TIME_SYSTEM":"UTC","TLE_LINE1":"1 51981U 22025AB  22128.58334491 -.00693065  00000-0 -33127-1 0  9995","MEAN_MOTION_DDOT":"0.0000000000000","LAUNCH_DATE":"2022-03-09","MEAN_ANOMALY":"190.0561","MEAN_MOTION":"15.20883732","ARG_OF_PERICENTER":"55.4354","EPHEMERIS_TYPE":"0","REV_AT_EPOCH":"365","TLE_LINE2":"2 51981  53.2175 209.3672 0001625  55.4354 190.0561 15.20883732  3653","ECCENTRICITY":"0.00016250","OBJECT_NAME":"STARLINK-3635","ELEMENT_SET_NO":"999","PERIAPSIS":"502.057","REF_FRAME":"TEME","OBJECT_ID":"2022-025AB","SEMIMAJOR_AXIS":"6881.311","EPOCH":"2022-05-08T14:00:01.000224","APOAPSIS":"504.294","FILE":"3435746","COUNTRY_CODE":"US","SITE":"AFETR","NORAD_CAT_ID":"51981","CLASSIFICATION_TYPE":"U","MEAN_ELEMENT_THEORY":"SGP4"},{"INCLINATION":"53.2175","GP_ID":"203019112","RCS_SIZE":"LARGE","CENTER_NAME":"EARTH","PERIOD":"94.644","MEAN_MOTION_DOT":"-0.00695275","RA_OF_ASC_NODE":"209.3705","OBJECT_TYPE":"PAYLOAD","BSTAR":"-0.03265100000000","TLE_LINE1":"1 51982U 22025AC  22128.58334491 -.00695275  00000-0 -32651-1 0  9992","TIME_SYSTEM":"UTC","DECAY_DATE":null,"LAUNCH_DATE":"2022-03-09","MEAN_ANOMALY":"273.2888","MEAN_MOTION_DDOT":"0.0000000000000","MEAN_MOTION":"15.21490997","ARG_OF_PERICENTER":"53.8071","EPHEMERIS_TYPE":"0","REV_AT_EPOCH":"364","TLE_LINE2":"2 51982  53.2175 209.3705 0001490  53.8071 273.2888 15.21490997  3642","PERIAPSIS":"500.319","ELEMENT_SET_NO":"999","OBJECT_NAME":"STARLINK-3650","ECCENTRICITY":"0.00014900","SEMIMAJOR_AXIS":"6879.480","OBJECT_ID":"2022-025AC","REF_FRAME":"TEME","FILE":"3435746","APOAPSIS":"502.370","EPOCH":"2022-05-08T14:00:01.000224","SITE":"AFETR","COUNTRY_CODE":"US","NORAD_CAT_ID":"51982","CLASSIFICATION_TYPE":"U","MEAN_ELEMENT_THEORY":"SGP4"}];
